[{"OBJECT_NAME":"STARLINK-30473","OBJECT_ID":"2023-146C","EPOCH":"2026-03-09T17:33:01.341792","MEAN_MOTION":15.0347199,"ECCENTRICITY":0.00010354,"INCLINATION":43.0019,"RA_OF_ASC_NODE":312.9655,"ARG_OF_PERICENTER":249.7613,"MEAN_ANOMALY":110.3119,"EPHEMERIS_TYPE":0,"CLASSIFICATION_TYPE":"U","NORAD_CAT_ID":57893,"ELEMENT_SET_NO":999,"REV_AT_EPOCH":13707,"BSTAR":0.0084839685,"MEAN_MOTION_DOT":0.00119304,"MEAN_MOTION_DDOT":0},{"OBJECT_NAME":"PEGASUS DEB","OBJECT_ID":"1994-029GC","EPOCH":"2026-03-09T23:03:07.542144","MEAN_MOTION":13.89172206,"ECCENTRICITY":0.05394822,"INCLINATION":81.4728,"RA_OF_ASC_NODE":252.4149,"ARG_OF_PERICENTER":331.1346,"MEAN_ANOMALY":142.5233,"EPHEMERIS_TYPE":0,"CLASSIFICATION_TYPE":"U","NORAD_CAT_ID":24129,"ELEMENT_SET_NO":999,"REV_AT_EPOCH":48606,"BSTAR":0.00045620982,"MEAN_MOTION_DOT":1.837e-5,"MEAN_MOTION_DDOT":0}]
